[{"OBJECT_NAME":"OBJECT K","OBJECT_ID":"2024-205K","EPOCH":"2026-03-09T22:22:01.331040","MEAN_MOTION":15.27932792,"ECCENTRICITY":0.00106729,"INCLINATION":97.417,"RA_OF_ASC_NODE":146.2172,"ARG_OF_PERICENTER":37.4736,"MEAN_ANOMALY":322.7246,"EPHEMERIS_TYPE":0,"CLASSIFICATION_TYPE":"U","NORAD_CAT_ID":61903,"ELEMENT_SET_NO":999,"REV_AT_EPOCH":7347,"BSTAR":0.00067315144,"MEAN_MOTION_DOT":0.00018331,"MEAN_MOTION_DDOT":0},{"OBJECT_NAME":"STARLINK-34640","OBJECT_ID":"2025-167Q","EPOCH":"2026-03-09T05:00:29.304000","MEAN_MOTION":15.3018414,"ECCENTRICITY":0.00014422,"INCLINATION":53.1618,"RA_OF_ASC_NODE":29.0744,"ARG_OF_PERICENTER":60.4833,"MEAN_ANOMALY":299.6311,"EPHEMERIS_TYPE":0,"CLASSIFICATION_TYPE":"U","NORAD_CAT_ID":65092,"ELEMENT_SET_NO":999,"REV_AT_EPOCH":3340,"BSTAR":-0.00070455422,"MEAN_MOTION_DOT":-0.00021157,"MEAN_MOTION_DDOT":0}]
